ZORKIY-2M-5             
1 67295U 25313AZ  26016.29002735  .00006708  00000+0  30010-3 0  9993
2 67295  97.4113  93.4667 0011450 154.3484 205.8323 15.21565640  2854
SITRO-AIS-62            
1 67296U 25313BA  26016.28935925  .00007825  00000+0  34879-3 0  9997
2 67296  97.4126  93.4726 0009687 163.6371 196.5180 15.21649054  2851
SITRO-AIS-61            
1 67297U 25313BB  26016.28865074  .00007850  00000+0  34932-3 0  9993
2 67297  97.4128  93.4733 0009374 165.5553 194.5953 15.21711801  2854
TIANHUI 7               
1 67300U 25314A   26008.13994258  .00002013  00000+0  82629-4 0  9994
2 67300  97.4205  85.2818 0001392 102.4970 257.6424 15.25383404  1382
CZ-4B R/B               
1 67301U 25314B   26016.19585268  .00084067  42456-5  40872-3 0  9996
2 67301  97.3744  94.2674 0138270 314.7031  44.3034 15.69615319  2630
SHIJIAN-29A (SJ-29A)    
1 67302U 25315A   26016.10056116 -.00000051  00000+0  00000+0 0  9994
2 67302   3.0127  99.1529 0001545 305.8097 179.8077  1.00271522    93
CZ-7A R/B               
1 67303U 25315B   26016.26457284  .00124398  13769-5  32653-2 0  9997
2 67303  19.5676  93.7642 7194150 191.4173 132.9813  2.43655180   404
CSG-3                   
1 67304U 26001A   26016.30388686  .00000167  00000+0  27395-4 0  9999
2 67304  97.8481 202.1702 0001605  90.4080 269.7318 14.82316845  1960
STARLINK-36490          
1 67305U 26002A   26016.25001157 -.01288500  00000+0 -59246-2 0  9990
2 67305  42.9969 268.1368 0001873 273.2741  36.4644 15.85308632  3046
STARLINK-36488          
1 67306U 26002B   26016.25001157 -.01296653  00000+0 -59640-2 0  9997
2 67306  42.9971 268.1315 0001885 275.8639  35.9588 15.85319332  2981
STARLINK-36481          
1 67307U 26002C   26016.25001157 -.01309345  00000+0 -60348-2 0  9998
2 67307  42.9973 268.1191 0001919 272.3911  44.4431 15.85303803  2987
STARLINK-36449          
1 67308U 26002D   26016.25001157 -.01316056  00000+0 -60706-2 0  9994
2 67308  42.9971 268.1130 0001872 274.7130  44.5020 15.85302631  3047
