CCSDS_OMM_VERS = 2.0
CREATION_DATE  = 
ORIGINATOR     = 

OBJECT_NAME    = ZORKIY-2M-5
OBJECT_ID      = 2025-313AZ
CENTER_NAME    = EARTH
REF_FRAME      = TEME
TIME_SYSTEM    = UTC
MEAN_ELEMENT_THEORY = SGP/SGP4

EPOCH          = 2026-01-16T06:57:38.363040
MEAN_MOTION    = 15.21565640
ECCENTRICITY   = .00114502
INCLINATION    = 97.4113
RA_OF_ASC_NODE = 93.4667
ARG_OF_PERICENTER = 154.3484
MEAN_ANOMALY   = 205.8323

EPHEMERIS_TYPE = 0
CLASSIFICATION_TYPE = U
NORAD_CAT_ID   = 67295
ELEMENT_SET_NO = 999
REV_AT_EPOCH   = 285
BSTAR          = .30009985E-3
MEAN_MOTION_DOT = .6708E-4
MEAN_MOTION_DDOT = 0

CCSDS_OMM_VERS = 2.0
CREATION_DATE  = 
ORIGINATOR     = 

OBJECT_NAME    = SITRO-AIS-62
OBJECT_ID      = 2025-313BA
CENTER_NAME    = EARTH
REF_FRAME      = TEME
TIME_SYSTEM    = UTC
MEAN_ELEMENT_THEORY = SGP/SGP4

EPOCH          = 2026-01-16T06:56:40.639200
MEAN_MOTION    = 15.21649054
ECCENTRICITY   = .00096872
INCLINATION    = 97.4126
RA_OF_ASC_NODE = 93.4726
ARG_OF_PERICENTER = 163.6371
MEAN_ANOMALY   = 196.5180

EPHEMERIS_TYPE = 0
CLASSIFICATION_TYPE = U
NORAD_CAT_ID   = 67296
ELEMENT_SET_NO = 999
REV_AT_EPOCH   = 285
BSTAR          = .34879495E-3
MEAN_MOTION_DOT = .7825E-4
MEAN_MOTION_DDOT = 0

CCSDS_OMM_VERS = 2.0
CREATION_DATE  = 
ORIGINATOR     = 

OBJECT_NAME    = SITRO-AIS-61
OBJECT_ID      = 2025-313BB
CENTER_NAME    = EARTH
REF_FRAME      = TEME
TIME_SYSTEM    = UTC
MEAN_ELEMENT_THEORY = SGP/SGP4

EPOCH          = 2026-01-16T06:55:39.423936
MEAN_MOTION    = 15.21711801
ECCENTRICITY   = .00093742
INCLINATION    = 97.4128
RA_OF_ASC_NODE = 93.4733
ARG_OF_PERICENTER = 165.5553
MEAN_ANOMALY   = 194.5953

EPHEMERIS_TYPE = 0
CLASSIFICATION_TYPE = U
NORAD_CAT_ID   = 67297
ELEMENT_SET_NO = 999
REV_AT_EPOCH   = 285
BSTAR          = .3493207E-3
MEAN_MOTION_DOT = .785E-4
MEAN_MOTION_DDOT = 0

CCSDS_OMM_VERS = 2.0
CREATION_DATE  = 
ORIGINATOR     = 

OBJECT_NAME    = TIANHUI 7
OBJECT_ID      = 2025-314A
CENTER_NAME    = EARTH
REF_FRAME      = TEME
TIME_SYSTEM    = UTC
MEAN_ELEMENT_THEORY = SGP/SGP4

EPOCH          = 2026-01-08T03:21:31.038912
MEAN_MOTION    = 15.25383404
ECCENTRICITY   = .00013928
INCLINATION    = 97.4205
RA_OF_ASC_NODE = 85.2818
ARG_OF_PERICENTER = 102.4970
MEAN_ANOMALY   = 257.6424

EPHEMERIS_TYPE = 0
CLASSIFICATION_TYPE = U
NORAD_CAT_ID   = 67300
ELEMENT_SET_NO = 999
REV_AT_EPOCH   = 138
BSTAR          = .82629326E-4
MEAN_MOTION_DOT = .2013E-4
MEAN_MOTION_DDOT = 0

CCSDS_OMM_VERS = 2.0
CREATION_DATE  = 
ORIGINATOR     = 

OBJECT_NAME    = CZ-4B R/B
OBJECT_ID      = 2025-314B
CENTER_NAME    = EARTH
REF_FRAME      = TEME
TIME_SYSTEM    = UTC
MEAN_ELEMENT_THEORY = SGP/SGP4

EPOCH          = 2026-01-16T04:42:01.671552
MEAN_MOTION    = 15.69615319
ECCENTRICITY   = .01382704
INCLINATION    = 97.3744
RA_OF_ASC_NODE = 94.2674
ARG_OF_PERICENTER = 314.7031
MEAN_ANOMALY   = 44.3034

EPHEMERIS_TYPE = 0
CLASSIFICATION_TYPE = U
NORAD_CAT_ID   = 67301
ELEMENT_SET_NO = 999
REV_AT_EPOCH   = 263
BSTAR          = .40871578E-3
MEAN_MOTION_DOT = .84067E-3
MEAN_MOTION_DDOT = .4245608E-5

CCSDS_OMM_VERS = 2.0
CREATION_DATE  = 
ORIGINATOR     = 

OBJECT_NAME    = SHIJIAN-29A (SJ-29A)
OBJECT_ID      = 2025-315A
CENTER_NAME    = EARTH
REF_FRAME      = TEME
TIME_SYSTEM    = UTC
MEAN_ELEMENT_THEORY = SGP/SGP4

EPOCH          = 2026-01-16T02:24:48.484224
MEAN_MOTION    = 1.00271522
ECCENTRICITY   = .00015457
INCLINATION    = 3.0127
RA_OF_ASC_NODE = 99.1529
ARG_OF_PERICENTER = 305.8097
MEAN_ANOMALY   = 179.8077

EPHEMERIS_TYPE = 0
CLASSIFICATION_TYPE = U
NORAD_CAT_ID   = 67302
ELEMENT_SET_NO = 999
REV_AT_EPOCH   = 9
BSTAR          = 0
MEAN_MOTION_DOT = -.51E-6
MEAN_MOTION_DDOT = 0

CCSDS_OMM_VERS = 2.0
CREATION_DATE  = 
ORIGINATOR     = 

OBJECT_NAME    = CZ-7A R/B
OBJECT_ID      = 2025-315B
CENTER_NAME    = EARTH
REF_FRAME      = TEME
TIME_SYSTEM    = UTC
MEAN_ELEMENT_THEORY = SGP/SGP4

EPOCH          = 2026-01-16T06:20:59.093376
MEAN_MOTION    = 2.43655180
ECCENTRICITY   = .71941504
INCLINATION    = 19.5676
RA_OF_ASC_NODE = 93.7642
ARG_OF_PERICENTER = 191.4173
MEAN_ANOMALY   = 132.9813

EPHEMERIS_TYPE = 0
CLASSIFICATION_TYPE = U
NORAD_CAT_ID   = 67303
ELEMENT_SET_NO = 999
REV_AT_EPOCH   = 40
BSTAR          = .32653377E-2
MEAN_MOTION_DOT = .124398E-2
MEAN_MOTION_DDOT = .1376931E-5

CCSDS_OMM_VERS = 2.0
CREATION_DATE  = 
ORIGINATOR     = 

OBJECT_NAME    = CSG-3
OBJECT_ID      = 2026-001A
CENTER_NAME    = EARTH
REF_FRAME      = TEME
TIME_SYSTEM    = UTC
MEAN_ELEMENT_THEORY = SGP/SGP4

EPOCH          = 2026-01-16T07:17:35.824704
MEAN_MOTION    = 14.82316845
ECCENTRICITY   = .00016053
INCLINATION    = 97.8481
RA_OF_ASC_NODE = 202.1702
ARG_OF_PERICENTER = 90.4080
MEAN_ANOMALY   = 269.7318

EPHEMERIS_TYPE = 0
CLASSIFICATION_TYPE = U
NORAD_CAT_ID   = 67304
ELEMENT_SET_NO = 999
REV_AT_EPOCH   = 196
BSTAR          = .27394624E-4
MEAN_MOTION_DOT = .167E-5
MEAN_MOTION_DDOT = 0

CCSDS_OMM_VERS = 2.0
CREATION_DATE  = 
ORIGINATOR     = 

OBJECT_NAME    = STARLINK-36490
OBJECT_ID      = 2026-002A
CENTER_NAME    = EARTH
REF_FRAME      = TEME
TIME_SYSTEM    = UTC
MEAN_ELEMENT_THEORY = SGP/SGP4

EPOCH          = 2026-01-16T06:00:00.999648
MEAN_MOTION    = 15.85308632
ECCENTRICITY   = .00018736
INCLINATION    = 42.9969
RA_OF_ASC_NODE = 268.1368
ARG_OF_PERICENTER = 273.2741
MEAN_ANOMALY   = 36.4644

EPHEMERIS_TYPE = 0
CLASSIFICATION_TYPE = U
NORAD_CAT_ID   = 67305
ELEMENT_SET_NO = 999
REV_AT_EPOCH   = 304
BSTAR          = -.59246185E-2
MEAN_MOTION_DOT = -.12885E-1
MEAN_MOTION_DDOT = 0

CCSDS_OMM_VERS = 2.0
CREATION_DATE  = 
ORIGINATOR     = 

OBJECT_NAME    = STARLINK-36488
OBJECT_ID      = 2026-002B
CENTER_NAME    = EARTH
REF_FRAME      = TEME
TIME_SYSTEM    = UTC
MEAN_ELEMENT_THEORY = SGP/SGP4

EPOCH          = 2026-01-16T06:00:00.999648
MEAN_MOTION    = 15.85319332
ECCENTRICITY   = .00018854
INCLINATION    = 42.9971
RA_OF_ASC_NODE = 268.1315
ARG_OF_PERICENTER = 275.8639
MEAN_ANOMALY   = 35.9588

EPHEMERIS_TYPE = 0
CLASSIFICATION_TYPE = U
NORAD_CAT_ID   = 67306
ELEMENT_SET_NO = 999
REV_AT_EPOCH   = 298
BSTAR          = -.59640079E-2
MEAN_MOTION_DOT = -.1296653E-1
MEAN_MOTION_DDOT = 0

CCSDS_OMM_VERS = 2.0
CREATION_DATE  = 
ORIGINATOR     = 

OBJECT_NAME    = STARLINK-36481
OBJECT_ID      = 2026-002C
CENTER_NAME    = EARTH
REF_FRAME      = TEME
TIME_SYSTEM    = UTC
MEAN_ELEMENT_THEORY = SGP/SGP4

EPOCH          = 2026-01-16T06:00:00.999648
MEAN_MOTION    = 15.85303803
ECCENTRICITY   = .0001919
INCLINATION    = 42.9973
RA_OF_ASC_NODE = 268.1191
ARG_OF_PERICENTER = 272.3911
MEAN_ANOMALY   = 44.4431

EPHEMERIS_TYPE = 0
CLASSIFICATION_TYPE = U
NORAD_CAT_ID   = 67307
ELEMENT_SET_NO = 999
REV_AT_EPOCH   = 298
BSTAR          = -.60348455E-2
MEAN_MOTION_DOT = -.1309345E-1
MEAN_MOTION_DDOT = 0

CCSDS_OMM_VERS = 2.0
CREATION_DATE  = 
ORIGINATOR     = 

OBJECT_NAME    = STARLINK-36449
OBJECT_ID      = 2026-002D
CENTER_NAME    = EARTH
REF_FRAME      = TEME
TIME_SYSTEM    = UTC
MEAN_ELEMENT_THEORY = SGP/SGP4

EPOCH          = 2026-01-16T06:00:00.999648
MEAN_MOTION    = 15.85302631
ECCENTRICITY   = .00018721
INCLINATION    = 42.9971
RA_OF_ASC_NODE = 268.1130
ARG_OF_PERICENTER = 274.7130
MEAN_ANOMALY   = 44.5020

EPHEMERIS_TYPE = 0
CLASSIFICATION_TYPE = U
NORAD_CAT_ID   = 67308
ELEMENT_SET_NO = 999
REV_AT_EPOCH   = 304
BSTAR          = -.60705725E-2
MEAN_MOTION_DOT = -.1316056E-1
MEAN_MOTION_DDOT = 0

